H1 CPF 01  gfz 2021 03 14 13  5732 tandemx   
H2 1003001  6202 36605    2021 03 14 12 59 42 2021 03 19 00 00 42   120 1 1  0 0 0
H9
10 0 59291  82062.000000  0    2300386.750  -6353695.981  -1352431.006
10 0 59291  82182.000000  0    2170121.714  -6523678.728   -455836.457
10 0 59291  82302.000000  0    1999991.731  -6577070.404    448775.384
10 0 59291  82422.000000  0    1795005.112  -6512225.597   1345484.819
10 0 59291  82542.000000  0    1560799.169  -6329681.766   2218499.767
10 0 59291  82662.000000  0    1303501.175  -6032158.848   3052443.932
10 0 59291  82782.000000  0    1029580.991  -5624515.957   3832634.547
10 0 59291  82902.000000  0     745698.565  -5113665.425   4545345.880
10 0 59291  83022.000000  0     458549.993  -4508447.836   5178053.040
10 0 59291  83142.000000  0     174715.447  -3819469.401   5719652.451
10 0 59291  83262.000000  0     -99485.691  -3058905.627   6160653.841
10 0 59291  83382.000000  0    -358130.746  -2240277.340   6493340.151
10 0 59291  83502.000000  0    -595817.826  -1378205.987   6711895.423
10 0 59291  83622.000000  0    -807775.623   -488150.520   6812501.591
10 0 59291  83742.000000  0    -989957.488    413871.262   6793402.039
10 0 59291  83862.000000  0   -1139118.105   1311571.227   6654930.196
10 0 59291  83982.000000  0   -1252870.866   2188684.458   6399503.775
10 0 59291  84102.000000  0   -1329725.986   3029263.581   6031585.292
10 0 59291  84222.000000  0   -1369109.034   3817969.826   5557608.663
10 0 59291  84342.000000  0   -1371358.472   4540355.746   4985872.450
10 0 59291  84462.000000  0   -1337703.276   5183135.904   4326401.091
10 0 59291  84582.000000  0   -1270220.460   5734439.349   3590772.994
10 0 59291  84702.000000  0   -1171773.472   6184037.078   2791920.286
10 0 59291  84822.000000  0   -1045934.504   6523543.144   1943901.803
10 0 59291  84942.000000  0    -896887.568   6746580.408   1061650.888
10 0 59291  85062.000000  0    -729318.038   6848906.441    160706.504
10 0 59291  85182.000000  0    -548290.849   6828498.757   -743067.782
10 0 59291  85302.000000  0    -359120.282   6685595.322  -1633773.615
10 0 59291  85422.000000  0    -167235.318   6422686.177  -2495767.205
10 0 59291  85542.000000  0      21955.311   6044460.334  -3313939.196
10 0 59291  85662.000000  0     203195.788   5557711.576  -4073981.951
10 0 59291  85782.000000  0     371511.049   4971204.395  -4762639.425
10 0 59291  85902.000000  0     522326.275   4295503.809  -5367934.285
10 0 59291  86022.000000  0     651575.353   3542774.151  -5879368.945
10 0 59291  86142.000000  0     755795.413   2726551.150  -6288097.911
10 0 59291  86262.000000  0     832206.267   1861493.147  -6587069.109
10 0 59291  86382.000000  0     878773.631    963117.373  -6771133.972
99
